NORAD_CAT_ID,OBJECT_NAME,OBJECT_TYPE,EPOCH,MEAN_MOTION,ECCENTRICITY,INCLINATION,RA_OF_ASC_NODE,ARG_OF_PERICENTER,MEAN_ANOMALY,BSTAR,MEAN_MOTION_DOT,MEAN_MOTION_DDOT,TLE_LINE0,TLE_LINE1,TLE_LINE2,SEMIMAJOR_AXIS,PERIOD,APOGEE,PERIGEE,DECAYED
54159.0,STARLINK-5294,PAYLOAD,2023-10-04 09:20:02,15.08846066,0.0001797,53.2181,37.4704,77.2835,282.8357,0.00031971,4.805e-05,0.0,0 STARLINK-5294,1 54159U 22141C   23277.38891777  .00004805  00000-0  31971-3 0  9996,2 54159  53.2181  37.4704 0001797  77.2835 282.8357 15.08846066 51765,6917.862,95.437,540.97,538.484,0.0
54159.0,STARLINK-5294,PAYLOAD,2023-10-04 14:06:11,15.08852731,0.0001732,53.2188,36.577,84.776,275.343,0.00047752,7.322e-05,0.0,0 STARLINK-5294,1 54159U 22141C   23277.58763460  .00007322  00000-0  47752-3 0  9996,2 54159  53.2188  36.5770 0001732  84.7760 275.3430 15.08852731 51792,6917.841,95.437,540.905,538.508,0.0
54159.0,STARLINK-5294,PAYLOAD,2023-10-04 17:16:57,15.08862958,0.0001638,53.2179,35.9827,83.1681,276.9497,0.00075588,0.0001177,0.0,0 STARLINK-5294,1 54159U 22141C   23277.72011166  .00011770  00000-0  75588-3 0  9991,2 54159  53.2179  35.9827 0001638  83.1681 276.9497 15.08862958 51813,6917.81,95.436,540.808,538.542,0.0
54159.0,STARLINK-5294,PAYLOAD,2023-10-05 01:13:53,15.08853975,0.0001812,53.2181,34.4967,79.5895,280.5301,0.00049915,7.668e-05,0.0,0 STARLINK-5294,1 54159U 22141C   23278.05131131  .00007668  00000-0  49915-3 0  9999,2 54159  53.2181  34.4967 0001812  79.5895 280.5301 15.08853975 51864,6917.838,95.437,540.956,538.449,0.0
54159.0,STARLINK-5294,PAYLOAD,2023-10-05 13:56:57,15.08865903,0.0001546,53.216,32.1167,83.7751,276.3417,0.00073786,0.00011483,0.0,0 STARLINK-5294,1 54159U 22141C   23278.58122431  .00011483  00000-0  73786-3 0  9993,2 54159  53.2160  32.1167 0001546  83.7751 276.3417 15.08865903 51944,6917.801,95.436,540.736,538.597,0.0
54159.0,STARLINK-5294,PAYLOAD,2023-10-06 01:04:39,15.08853221,0.0001696,53.2179,30.0351,83.7504,276.3681,0.00044158,6.749e-05,0.0,0 STARLINK-5294,1 54159U 22141C   23279.04490500  .00006749  00000-0  44158-3 0  9990,2 54159  53.2179  30.0351 0001696  83.7504 276.3681 15.08853221 52010,6917.84,95.437,540.878,538.532,0.0
54159.0,STARLINK-5294,PAYLOAD,2023-10-06 07:26:12,15.08825644,0.0001965,53.2162,28.8473,84.9093,275.2124,-0.00034373,-5.752e-05,0.0,0 STARLINK-5294,1 54159U 22141C   23279.30987199 -.00005752  00000-0 -34373-3 0  9997,2 54159  53.2162  28.8473 0001965  84.9093 275.2124 15.08825644 52059,6917.924,95.438,541.149,538.43,0.0
54159.0,STARLINK-5294,PAYLOAD,2023-10-06 13:47:45,15.08822979,0.0001447,53.2165,27.6565,94.4385,265.6772,-0.0001128,-2.082e-05,0.0,0 STARLINK-5294,1 54159U 22141C   23279.57483446 -.00002082  00000-0 -11280-3 0  9997,2 54159  53.2165  27.6565 0001447  94.4385 265.6772 15.08822979 52090,6917.932,95.439,540.798,538.796,0.0
54159.0,STARLINK-5294,PAYLOAD,2023-10-07 10:27:47,15.08841355,0.000152,53.2169,23.7914,94.0254,266.0912,0.0011261,0.0001768,0.0,0 STARLINK-5294,1 54159U 22141C   23280.43596466  .00017680  00000-0  11261-2 0  9997,2 54159  53.2169  23.7914 0001520  94.0254 266.0912 15.08841355 52227,6917.876,95.437,540.793,538.69,0.0
54159.0,STARLINK-5294,PAYLOAD,2023-10-07 13:38:33,15.08852,0.0001593,53.2172,23.1961,97.0714,263.0459,0.0013446,0.00021183,0.0,0 STARLINK-5294,1 54159U 22141C   23280.56844286  .00021183  00000-0  13446-2 0  9997,2 54159  53.2172  23.1961 0001593  97.0714 263.0459 15.08852000 52245,6917.844,95.437,540.811,538.607,0.0
54159.0,STARLINK-5294,PAYLOAD,2023-10-08 10:18:34,15.08853369,0.0001348,53.2181,19.3295,88.9566,271.158,0.00071994,0.00011193,0.0,0 STARLINK-5294,1 54159U 22141C   23281.42956208  .00011193  00000-0  71994-3 0  9994,2 54159  53.2181  19.3295 0001348  88.9566 271.1580 15.08853369 52372,6917.84,95.437,540.637,538.772,0.0
54159.0,STARLINK-5294,PAYLOAD,2023-10-08 13:29:20,15.0886042,0.0001329,53.2178,18.736,77.0158,283.0982,0.00095636,0.00014974,0.0,0 STARLINK-5294,1 54159U 22141C   23281.56204067  .00014974  00000-0  95636-3 0  9997,2 54159  53.2178  18.7360 0001329  77.0158 283.0982 15.08860420 52395,6917.818,95.436,540.602,538.764,0.0
54159.0,STARLINK-5294,PAYLOAD,2023-10-08 16:40:06,15.08866404,0.00014,53.2178,18.1407,74.8735,285.2412,0.0011225,0.00017635,0.0,0 STARLINK-5294,1 54159U 22141C   23281.69451834  .00017635  00000-0  11225-2 0  9995,2 54159  53.2178  18.1407 0001400  74.8735 285.2412 15.08866404 52410,6917.8,95.436,540.633,538.696,0.0
54159.0,STARLINK-5294,PAYLOAD,2023-10-08 23:01:39,15.08850642,0.0001466,53.2188,16.9508,78.4141,281.7016,0.00074556,0.00011601,0.0,0 STARLINK-5294,1 54159U 22141C   23281.95948088  .00011601  00000-0  74556-3 0  9990,2 54159  53.2188  16.9508 0001466  78.4141 281.7016 15.08850642 52454,6917.848,95.437,540.727,538.699,0.0
54159.0,STARLINK-5294,PAYLOAD,2023-10-09 13:20:07,15.088573,0.0001457,53.2185,14.2771,85.0466,275.0692,0.00092183,0.0001442,0.0,0 STARLINK-5294,1 54159U 22141C   23282.55563977  .00014420  00000-0  92183-3 0  9995,2 54159  53.2185  14.2771 0001457  85.0466 275.0692 15.08857300 52542,6917.828,95.436,540.7,538.685,0.0
54159.0,STARLINK-5294,PAYLOAD,2023-10-10 10:00:07,15.08861882,0.0001396,53.2181,10.4096,98.1894,261.9257,0.0015945,0.00025195,0.0,0 STARLINK-5294,1 54159U 22141C   23283.41675920  .00025195  00000-0  15945-2 0  9994,2 54159  53.2181  10.4096 0001396  98.1894 261.9257 15.08861882 52673,6917.814,95.436,540.644,538.713,0.0
54159.0,STARLINK-5294,PAYLOAD,2023-10-10 13:10:54,15.08856598,0.0001458,53.2183,9.8148,99.6459,260.4698,0.0016832,0.00026614,0.0,0 STARLINK-5294,1 54159U 22141C   23283.54923850  .00026614  00000-0  16832-2 0  9999,2 54159  53.2183   9.8148 0001458  99.6459 260.4698 15.08856598 52690,6917.83,95.437,540.703,538.686,0.0
54159.0,STARLINK-5294,PAYLOAD,2023-10-10 16:21:40,15.0885242,0.0001316,53.2176,9.221,95.6457,264.4685,0.0014685,0.00023168,0.0,0 STARLINK-5294,1 54159U 22141C   23283.68171906  .00023168  00000-0  14685-2 0  9996,2 54159  53.2176   9.2210 0001316  95.6457 264.4685 15.08852420 52716,6917.842,95.437,540.618,538.797,0.0
54159.0,STARLINK-5294,PAYLOAD,2023-10-11 05:04:46,15.08840638,0.0001768,53.2184,6.845,86.7904,273.329,0.0013855,0.00021831,0.0,0 STARLINK-5294,1 54159U 22141C   23284.21164572  .00021831  00000-0  13855-2 0  9990,2 54159  53.2184   6.8450 0001768  86.7904 273.3290 15.08840638 52790,6917.878,95.438,540.967,538.52,0.0
54159.0,STARLINK-5294,PAYLOAD,2023-10-11 11:26:18,15.0883475,0.0001722,53.2182,5.6526,86.6739,273.445,0.00088646,0.00013846,0.0,0 STARLINK-5294,1 54159U 22141C   23284.47660774  .00013846  00000-0  88646-3 0  9991,2 54159  53.2182   5.6526 0001722  86.6739 273.4450 15.08834750 52836,6917.896,95.438,540.953,538.57,0.0
54159.0,STARLINK-5294,PAYLOAD,2023-10-12 04:55:33,15.08840369,0.0001679,53.2189,2.3838,89.6868,270.4316,0.0004519,6.911e-05,0.0,0 STARLINK-5294,1 54159U 22141C   23285.20524906  .00006911  00000-0  45190-3 0  9991,2 54159  53.2189   2.3838 0001679  89.6868 270.4316 15.08840369 52943,6917.879,95.438,540.906,538.583,0.0
54159.0,STARLINK-5294,PAYLOAD,2023-10-12 12:52:28,15.08850211,0.0001608,53.2182,0.8973,91.3789,268.7388,0.00061299,9.484e-05,0.0,0 STARLINK-5294,1 54159U 22141C   23285.53644636  .00009484  00000-0  61299-3 0  9996,2 54159  53.2182   0.8973 0001608  91.3789 268.7388 15.08850211 52994,6917.849,95.437,540.827,538.602,0.0
54159.0,STARLINK-5294,PAYLOAD,2023-10-12 14:27:51,15.08856381,0.000154,53.2168,0.5983,94.7648,265.352,0.00079476,0.00012389,0.0,0 STARLINK-5294,1 54159U 22141C   23285.60268440  .00012389  00000-0  79476-3 0  9993,2 54159  53.2168   0.5983 0001540  94.7648 265.3520 15.08856381 53000,6917.83,95.437,540.761,538.63,0.0
54159.0,STARLINK-5294,PAYLOAD,2023-10-13 00:00:10,15.08843878,0.0001474,53.2176,358.812,102.514,257.6017,0.00036185,5.476e-05,0.0,0 STARLINK-5294,1 54159U 22141C   23286.00012666  .00005476  00000-0  36185-3 0  9994,2 54159  53.2176 358.8120 0001474 102.5140 257.6017 15.08843878 53060,6917.869,95.437,540.753,538.714,0.0
54159.0,STARLINK-5294,PAYLOAD,2023-10-13 11:07:53,15.08840633,0.0001694,53.2174,356.7333,84.0994,276.0192,0.00016705,2.372e-05,0.0,0 STARLINK-5294,1 54159U 22141C   23286.46381015  .00002372  00000-0  16705-3 0  9999,2 54159  53.2174 356.7333 0001694  84.0994 276.0192 15.08840633 53139,6917.878,95.438,540.915,538.572,0.0
54159.0,STARLINK-5294,PAYLOAD,2023-10-14 10:58:39,15.08857501,0.0001792,53.2183,352.2691,94.9833,265.1364,0.00065506,0.00010158,0.0,0 STARLINK-5294,1 54159U 22141C   23287.45740288  .00010158  00000-0  65506-3 0  9994,2 54159  53.2183 352.2691 0001792  94.9833 265.1364 15.08857501 53286,6917.827,95.436,540.932,538.452,0.0
54159.0,STARLINK-5294,PAYLOAD,2023-10-15 04:27:55,15.08818934,6.89e-05,53.2206,349.0027,34.9647,325.1391,-0.00038469,-6.401e-05,0.0,0 STARLINK-5294,1 54159U 22141C   23288.18605401 -.00006401  00000-0 -38469-3 0  9998,2 54159  53.2206 349.0027 0000689  34.9647 325.1391 15.08818934 53396,6917.945,95.439,540.286,539.333,0.0
54159.0,STARLINK-5294,PAYLOAD,2023-10-15 10:49:27,15.08827392,0.0001618,53.2171,347.8119,92.9377,267.18,-0.00018228,-3.187e-05,0.0,0 STARLINK-5294,1 54159U 22141C   23288.45101261 -.00003187  00000-0 -18228-3 0  9992,2 54159  53.2171 347.8119 0001618  92.9377 267.1800 15.08827392 53435,6917.919,95.438,540.903,538.665,0.0
54159.0,STARLINK-5294,PAYLOAD,2023-10-15 14:00:13,15.08828482,0.0001665,53.2168,347.2163,93.4492,266.6691,-4.3439e-05,-9.79e-06,0.0,0 STARLINK-5294,1 54159U 22141C   23288.58349388 -.00000979  00000-0 -43439-4 0  9999,2 54159  53.2168 347.2163 0001665  93.4492 266.6691 15.08828482 53455,6917.916,95.438,540.932,538.629,0.0
54159.0,STARLINK-5294,PAYLOAD,2023-10-16 07:29:28,15.08848019,0.0001628,53.2169,343.9454,95.9506,264.1672,0.001227,0.00019298,0.0,0 STARLINK-5294,1 54159U 22141C   23289.31213850  .00019298  00000-0  12270-2 0  9994,2 54159  53.2169 343.9454 0001628  95.9506 264.1672 15.08848019 53566,6917.856,95.437,540.847,538.595,0.0
